{"type": "FeatureCollection", "features": [ {"type": "Feature", "properties": {"norad_id": 34464, "name": "COSMOS 2251 DEB", "group": "cosmos-2251-debris", "lat": 53.78888741405368, "lon": 97.83405629379274, "alt_km": 488.63182575716746, "timestamp": "2025-12-14T09:36:23.432486+00:00", "meta": {"OBJECT_NAME": "COSMOS 2251 DEB", "OBJECT_ID": "1993-036TH", "EPOCH": "2025-12-13T16:03:50.648544", "MEAN_MOTION": 15.2724959, "ECCENTRICITY": 0.00157014, "INCLINATION": 73.9895, "RA_OF_ASC_NODE": 76.2972, "ARG_OF_PERICENTER": 255.6316, "MEAN_ANOMALY": 104.3143, "EPHEMERIS_TYPE": 0, "CLASSIFICATION_TYPE": "U", "NORAD_CAT_ID": 34464, "ELEMENT_SET_NO": 999, "REV_AT_EPOCH": 89854, "BSTAR": 0.0027061344, "MEAN_MOTION_DOT": 0.00073213, "MEAN_MOTION_DDOT": 0}, "tle": {"line1": "1 34464U 93036TH  25347.66933621  .00073213  00000+0  27061-2 0  9992", "line2": "2 34464  73.9895  76.2972 0015701 255.6316 104.3143 15.27249590898543"}}, "geometry": {"type": "Point", "coordinates": [97.83405629379274, 53.78888741405368]}}, {"type": "Feature", "properties": {"norad_id": 34468, "name": "COSMOS 2251 DEB", "group": "cosmos-2251-debris", "lat": 14.174188784081496, "lon": -70.05869583066993, "alt_km": 736.929624643456, "timestamp": "2025-12-14T09:36:23.432496+00:00", "meta": {"OBJECT_NAME": "COSMOS 2251 DEB", "OBJECT_ID": "1993-036TM", "EPOCH": "2025-12-13T12:56:08.118240", "MEAN_MOTION": 14.47628103, "ECCENTRICITY": 0.00763625, "INCLINATION": 74.0128, "RA_OF_ASC_NODE": 115.7065, "ARG_OF_PERICENTER": 260.4805, "MEAN_ANOMALY": 98.7718, "EPHEMERIS_TYPE": 0, "CLASSIFICATION_TYPE": "U", "NORAD_CAT_ID": 34468, "ELEMENT_SET_NO": 999, "REV_AT_EPOCH": 88473, "BSTAR": 0.00050658939, "MEAN_MOTION_DOT": 1.907e-05, "MEAN_MOTION_DDOT": 0}, "tle": {"line1": "1 34468U 93036TM  25347.53898285  .00001907  00000+0  50659-3 0  9999", "line2": "2 34468  74.0128 115.7065 0076362 260.4805  98.7718 14.47628103884739"}}, "geometry": {"type": "Point", "coordinates": [-70.05869583066993, 14.174188784081496]}}, {"type": "Feature", "properties": {"norad_id": 34472, "name": "COSMOS 2251 DEB", "group": "cosmos-2251-debris", "lat": 73.54303982360537, "lon": 170.4299052202002, "alt_km": 1173.6427527027945, "timestamp": "2025-12-14T09:36:23.432506+00:00", "meta": {"OBJECT_NAME": "COSMOS 2251 DEB", "OBJECT_ID": "1993-036TR", "EPOCH": "2025-12-10T17:33:33.413472", "MEAN_MOTION": 13.70324681, "ECCENTRICITY": 0.03280455, "INCLINATION": 74.083, "RA_OF_ASC_NODE": 101.446, "ARG_OF_PERICENTER": 232.9036, "MEAN_ANOMALY": 124.1688, "EPHEMERIS_TYPE": 0, "CLASSIFICATION_TYPE": "U", "NORAD_CAT_ID": 34472, "ELEMENT_SET_NO": 999, "REV_AT_EPOCH": 83699, "BSTAR": 0.0010864797, "MEAN_MOTION_DOT": 1.379e-05, "MEAN_MOTION_DDOT": 0}, "tle": {"line1": "1 34472U 93036TR  25344.73163673  .00001379  00000+0  10865-2 0  9996", "line2": "2 34472  74.0830 101.4460 0328045 232.9036 124.1688 13.70324681836997"}}, "geometry": {"type": "Point", "coordinates": [170.4299052202002, 73.54303982360537]}}, {"type": "Feature", "properties": {"norad_id": 34474, "name": "COSMOS 2251 DEB", "group": "cosmos-2251-debris", "lat": 70.90439644618428, "lon": 18.824623068582778, "alt_km": 757.2722942242553, "timestamp": "2025-12-14T09:36:23.432516+00:00", "meta": {"OBJECT_NAME": "COSMOS 2251 DEB", "OBJECT_ID": "1993-036TT", "EPOCH": "2025-12-13T09:55:24.517344", "MEAN_MOTION": 14.0642186, "ECCENTRICITY": 0.01983798, "INCLINATION": 74.0776, "RA_OF_ASC_NODE": 325.0024, "ARG_OF_PERICENTER": 38.6944, "MEAN_ANOMALY": 84.827, "EPHEMERIS_TYPE": 0, "CLASSIFICATION_TYPE": "U", "NORAD_CAT_ID": 34474, "ELEMENT_SET_NO": 999, "REV_AT_EPOCH": 85518, "BSTAR": 0.0029637618, "MEAN_MOTION_DOT": 5.832e-05, "MEAN_MOTION_DDOT": 0}, "tle": {"line1": "1 34474U 93036TT  25347.41347821  .00005832  00000+0  29638-2 0  9991", "line2": "2 34474  74.0776 325.0024 0198379  38.6944  84.8270 14.06421860855180"}}, "geometry": {"type": "Point", "coordinates": [18.824623068582778, 70.90439644618428]}}, {"type": "Feature", "properties": {"norad_id": 34476, "name": "COSMOS 2251 DEB", "group": "cosmos-2251-debris", "lat": -72.02847391882584, "lon": -38.13744472763235, "alt_km": 773.5674441775072, "timestamp": "2025-12-14T09:36:23.432526+00:00", "meta": {"OBJECT_NAME": "COSMOS 2251 DEB", "OBJECT_ID": "1993-036TV", "EPOCH": "2025-12-13T13:12:32.914944", "MEAN_MOTION": 13.82038877, "ECCENTRICITY": 0.03206751, "INCLINATION": 74.0054, "RA_OF_ASC_NODE": 81.1369, "ARG_OF_PERICENTER": 300.528, "MEAN_ANOMALY": 56.4549, "EPHEMERIS_TYPE": 0, "CLASSIFICATION_TYPE": "U", "NORAD_CAT_ID": 34476, "ELEMENT_SET_NO": 999, "REV_AT_EPOCH": 83649, "BSTAR": 0.0039703915, "MEAN_MOTION_DOT": 6.299e-05, "MEAN_MOTION_DDOT": 0}, "tle": {"line1": "1 34476U 93036TV  25347.55038096  .00006299  00000+0  39704-2 0  9992", "line2": "2 34476  74.0054  81.1369 0320675 300.5280  56.4549 13.82038877836495"}}, "geometry": {"type": "Point", "coordinates": [-38.13744472763235, -72.02847391882584]}}, {"type": "Feature", "properties": {"norad_id": 34477, "name": "COSMOS 2251 DEB", "group": "cosmos-2251-debris", "lat": -60.681543002686155, "lon": -82.89026455394055, "alt_km": 656.1435876294663, "timestamp": "2025-12-14T09:36:23.432536+00:00", "meta": {"OBJECT_NAME": "COSMOS 2251 DEB", "OBJECT_ID": "1993-036TW", "EPOCH": "2025-12-13T16:44:46.304160", "MEAN_MOTION": 14.56873954, "ECCENTRICITY": 0.00768891, "INCLINATION": 73.9791, "RA_OF_ASC_NODE": 67.6754, "ARG_OF_PERICENTER": 254.6619, "MEAN_ANOMALY": 267.5211, "EPHEMERIS_TYPE": 0, "CLASSIFICATION_TYPE": "U", "NORAD_CAT_ID": 34477, "ELEMENT_SET_NO": 999, "REV_AT_EPOCH": 88639, "BSTAR": 0.00098574043, "MEAN_MOTION_DOT": 4.573e-05, "MEAN_MOTION_DDOT": 0}, "tle": {"line1": "1 34477U 93036TW  25347.69775815  .00004573  00000+0  98574-3 0  9999", "line2": "2 34477  73.9791  67.6754 0076889 254.6619 267.5211 14.56873954886399"}}, "geometry": {"type": "Point", "coordinates": [-82.89026455394055, -60.681543002686155]}}, {"type": "Feature", "properties": {"norad_id": 34478, "name": "COSMOS 2251 DEB", "group": "cosmos-2251-debris", "lat": 63.847642079087926, "lon": 39.116119915785504, "alt_km": 556.8663924064467, "timestamp": "2025-12-14T09:36:23.432547+00:00", "meta": {"OBJECT_NAME": "COSMOS 2251 DEB", "OBJECT_ID": "1993-036TX", "EPOCH": "2025-12-13T11:43:14.831904", "MEAN_MOTION": 15.08104433, "ECCENTRICITY": 0.00348289, "INCLINATION": 74.0411, "RA_OF_ASC_NODE": 5.3446, "ARG_OF_PERICENTER": 226.2414, "MEAN_ANOMALY": 294.0144, "EPHEMERIS_TYPE": 0, "CLASSIFICATION_TYPE": "U", "NORAD_CAT_ID": 34478, "ELEMENT_SET_NO": 999, "REV_AT_EPOCH": 88984, "BSTAR": 0.0041816982, "MEAN_MOTION_DOT": 0.00065996, "MEAN_MOTION_DDOT": 0}, "tle": {"line1": "1 34478U 93036TX  25347.48836611  .00065996  00000+0  41817-2 0  9992", "line2": "2 34478  74.0411   5.3446 0034828 226.2414 294.0144 15.08104433889843"}}, "geometry": {"type": "Point", "coordinates": [39.116119915785504, 63.847642079087926]}}, {"type": "Feature", "properties": {"norad_id": 34481, "name": "COSMOS 2251 DEB", "group": "cosmos-2251-debris", "lat": -61.55199267658114, "lon": 18.39111066280607, "alt_km": 771.9141433179539, "timestamp": "2025-12-14T09:36:23.432557+00:00", "meta": {"OBJECT_NAME": "COSMOS 2251 DEB", "OBJECT_ID": "1993-036UA", "EPOCH": "2025-12-13T12:25:13.353888", "MEAN_MOTION": 14.3255681, "ECCENTRICITY": 0.00707017, "INCLINATION": 73.9808, "RA_OF_ASC_NODE": 52.0316, "ARG_OF_PERICENTER": 226.2227, "MEAN_ANOMALY": 196.1496, "EPHEMERIS_TYPE": 0, "CLASSIFICATION_TYPE": "U", "NORAD_CAT_ID": 34481, "ELEMENT_SET_NO": 999, "REV_AT_EPOCH": 87460, "BSTAR": 0.0010902035, "MEAN_MOTION_DOT": 3.015e-05, "MEAN_MOTION_DDOT": 0}, "tle": {"line1": "1 34481U 93036UA  25347.51751567  .00003015  00000+0  10902-2 0  9991", "line2": "2 34481  73.9808  52.0316 0070701 226.2227 196.1496 14.32556810874608"}}, "geometry": {"type": "Point", "coordinates": [18.39111066280607, -61.55199267658114]}}, {"type": "Feature", "properties": {"norad_id": 34482, "name": "COSMOS 2251 DEB", "group": "cosmos-2251-debris", "lat": -35.67352369790598, "lon": -151.47978232072728, "alt_km": 646.1920106564894, "timestamp": "2025-12-14T09:36:23.432567+00:00", "meta": {"OBJECT_NAME": "COSMOS 2251 DEB", "OBJECT_ID": "1993-036UB", "EPOCH": "2025-12-13T16:07:11.642592", "MEAN_MOTION": 14.69215147, "ECCENTRICITY": 0.00449042, "INCLINATION": 74.0373, "RA_OF_ASC_NODE": 221.7879, "ARG_OF_PERICENTER": 281.5802, "MEAN_ANOMALY": 148.6623, "EPHEMERIS_TYPE": 0, "CLASSIFICATION_TYPE": "U", "NORAD_CAT_ID": 34482, "ELEMENT_SET_NO": 999, "REV_AT_EPOCH": 88201, "BSTAR": 0.0021435748, "MEAN_MOTION_DOT": 0.00012816, "MEAN_MOTION_DDOT": 0}, "tle": {"line1": "1 34482U 93036UB  25347.67166253  .00012816  00000+0  21436-2 0  9994", "line2": "2 34482  74.0373 221.7879 0044904 281.5802 148.6623 14.69215147882019"}}, "geometry": {"type": "Point", "coordinates": [-151.47978232072728, -35.67352369790598]}}, {"type": "Feature", "properties": {"norad_id": 34544, "name": "COSMOS 2251 DEB", "group": "cosmos-2251-debris", "lat": -60.60859035724658, "lon": 52.155793162600084, "alt_km": 786.0302274642654, "timestamp": "2025-12-14T09:36:23.432577+00:00", "meta": {"OBJECT_NAME": "COSMOS 2251 DEB", "OBJECT_ID": "1993-036UE", "EPOCH": "2025-12-13T00:51:57.184128", "MEAN_MOTION": 13.5466325, "ECCENTRICITY": 0.03841405, "INCLINATION": 73.9141, "RA_OF_ASC_NODE": 203.5493, "ARG_OF_PERICENTER": 231.9395, "MEAN_ANOMALY": 201.512, "EPHEMERIS_TYPE": 0, "CLASSIFICATION_TYPE": "U", "NORAD_CAT_ID": 34544, "ELEMENT_SET_NO": 999, "REV_AT_EPOCH": 82886, "BSTAR": 0.00040485585, "MEAN_MOTION_DOT": 4.2e-06, "MEAN_MOTION_DDOT": 0}, "tle": {"line1": "1 34544U 93036UE  25347.03607852  .00000420  00000+0  40486-3 0  9993", "line2": "2 34544  73.9141 203.5493 0384140 231.9395 201.5120 13.54663250828863"}}, "geometry": {"type": "Point", "coordinates": [52.155793162600084, -60.60859035724658]}}]}